{
  "type": "FeatureCollection",
  "features": [
    {
      "type": "Feature",
      "properties": {
        "norad_id": 27954,
        "name": "GALAXY 13 (HORIZONS-1)",
        "group": "intelsat",
        "lat": 0.43709879538589147,
        "lon": 111.8877909358298,
        "alt_km": 35795.52751463017,
        "timestamp": "2025-12-20T11:30:28.038434+00:00",
        "meta_object_name": "GALAXY 13 (HORIZONS-1)",
        "meta_object_id": "2003-044A",
        "meta_epoch": "2025-12-20T00:32:02.156352",
        "meta_mean_motion": 1.00269578,
        "meta_eccentricity": 0.0002401,
        "meta_inclination": 0.9552,
        "meta_ra_of_asc_node": 86.3774,
        "meta_arg_of_pericenter": 176.8754,
        "meta_mean_anomaly": 43.6047,
        "meta_ephemeris_type": 0,
        "meta_classification_type": "U",
        "meta_norad_cat_id": 27954,
        "meta_element_set_no": 999,
        "meta_rev_at_epoch": 4477,
        "meta_bstar": 0,
        "meta_mean_motion_dot": 1.56e-06,
        "meta_mean_motion_ddot": 0,
        "tle_line1": "1 27954U 03044A   25354.02224718  .00000156  00000+0  00000+0 0  9993",
        "tle_line2": "2 27954   0.9552  86.3774 0002401 176.8754  43.6047  1.00269578 44774"
      },
      "geometry": {
        "type": "Point",
        "coordinates": [
          111.8877909358298,
          0.43709879538589147
        ]
      }
    },
    {
      "type": "Feature",
      "properties": {
        "norad_id": 28358,
        "name": "INTELSAT 10-02",
        "group": "intelsat",
        "lat": -0.021218083375066803,
        "lon": -99.05143004416523,
        "alt_km": 35783.55334780979,
        "timestamp": "2025-12-20T11:30:28.038462+00:00",
        "meta_object_name": "INTELSAT 10-02",
        "meta_object_id": "2004-022A",
        "meta_epoch": "2025-12-20T01:14:28.091328",
        "meta_mean_motion": 1.00270604,
        "meta_eccentricity": 8.76e-05,
        "meta_inclination": 0.0204,
        "meta_ra_of_asc_node": 70.0067,
        "meta_arg_of_pericenter": 230.9375,
        "meta_mean_anomaly": 165.6007,
        "meta_ephemeris_type": 0,
        "meta_classification_type": "U",
        "meta_norad_cat_id": 28358,
        "meta_element_set_no": 999,
        "meta_rev_at_epoch": 7876,
        "meta_bstar": 0,
        "meta_mean_motion_dot": 1.3e-07,
        "meta_mean_motion_ddot": 0,
        "tle_line1": "1 28358U 04022A   25354.05171402  .00000013  00000+0  00000+0 0  9995",
        "tle_line2": "2 28358   0.0204  70.0067 0000876 230.9375 165.6007  1.00270604 78767"
      },
      "geometry": {
        "type": "Point",
        "coordinates": [
          -99.05143004416523,
          -0.021218083375066803
        ]
      }
    },
    {
      "type": "Feature",
      "properties": {
        "norad_id": 28626,
        "name": "XM-3 (RHYTHM)",
        "group": "intelsat",
        "lat": -0.19539149260149322,
        "lon": -20.568865497678505,
        "alt_km": 36153.19653037684,
        "timestamp": "2025-12-20T11:30:28.038476+00:00",
        "meta_object_name": "XM-3 (RHYTHM)",
        "meta_object_id": "2005-008A",
        "meta_epoch": "2025-12-20T03:20:05.476128",
        "meta_mean_motion": 0.98949989,
        "meta_eccentricity": 0.0001919,
        "meta_inclination": 0.193,
        "meta_ra_of_asc_node": 81.965,
        "meta_arg_of_pericenter": 278.2014,
        "meta_mean_anomaly": 217.9729,
        "meta_ephemeris_type": 0,
        "meta_classification_type": "U",
        "meta_norad_cat_id": 28626,
        "meta_element_set_no": 999,
        "meta_rev_at_epoch": 4082,
        "meta_bstar": 0,
        "meta_mean_motion_dot": 6.8e-07,
        "meta_mean_motion_ddot": 0,
        "tle_line1": "1 28626U 05008A   25354.13895227  .00000068  00000+0  00000+0 0  9995",
        "tle_line2": "2 28626   0.1930  81.9650 0001919 278.2014 217.9729  0.98949989 40828"
      },
      "geometry": {
        "type": "Point",
        "coordinates": [
          -20.568865497678505,
          -0.19539149260149322
        ]
      }
    },
    {
      "type": "Feature",
      "properties": {
        "norad_id": 28659,
        "name": "DIRECTV 8",
        "group": "intelsat",
        "lat": 0.013916794495919744,
        "lon": 142.8566251090533,
        "alt_km": 35794.68707826734,
        "timestamp": "2025-12-20T11:30:28.038494+00:00",
        "meta_object_name": "DIRECTV 8",
        "meta_object_id": "2005-019A",
        "meta_epoch": "2025-12-20T04:36:46.151712",
        "meta_mean_motion": 1.00271258,
        "meta_eccentricity": 0.0002827,
        "meta_inclination": 0.0156,
        "meta_ra_of_asc_node": 333.8724,
        "meta_arg_of_pericenter": 304.0914,
        "meta_mean_anomaly": 121.2184,
        "meta_ephemeris_type": 0,
        "meta_classification_type": "U",
        "meta_norad_cat_id": 28659,
        "meta_element_set_no": 999,
        "meta_rev_at_epoch": 7527,
        "meta_bstar": 0,
        "meta_mean_motion_dot": 2.5e-07,
        "meta_mean_motion_ddot": 0,
        "tle_line1": "1 28659U 05019A   25354.19220083  .00000025  00000+0  00000+0 0  9994",
        "tle_line2": "2 28659   0.0156 333.8724 0002827 304.0914 121.2184  1.00271258 75270"
      },
      "geometry": {
        "type": "Point",
        "coordinates": [
          142.8566251090533,
          0.013916794495919744
        ]
      }
    },
    {
      "type": "Feature",
      "properties": {
        "norad_id": 28702,
        "name": "GALAXY 28 (G-28)",
        "group": "intelsat",
        "lat": 2.841696032682105,
        "lon": 173.2107192940394,
        "alt_km": 35788.531405930706,
        "timestamp": "2025-12-20T11:30:28.038506+00:00",
        "meta_object_name": "GALAXY 28 (G-28)",
        "meta_object_id": "2005-022A",
        "meta_epoch": "2025-12-20T00:49:30.482112",
        "meta_mean_motion": 1.00271047,
        "meta_eccentricity": 0.0002938,
        "meta_inclination": 2.8382,
        "meta_ra_of_asc_node": 81.1982,
        "meta_arg_of_pericenter": 194.0723,
        "meta_mean_anomaly": 97.2981,
        "meta_ephemeris_type": 0,
        "meta_classification_type": "U",
        "meta_norad_cat_id": 28702,
        "meta_element_set_no": 999,
        "meta_rev_at_epoch": 5017,
        "meta_bstar": 0,
        "meta_mean_motion_dot": -1.65e-06,
        "meta_mean_motion_ddot": 0,
        "tle_line1": "1 28702U 05022A   25354.03438058 -.00000165  00000+0  00000+0 0  9999",
        "tle_line2": "2 28702   2.8382  81.1982 0002938 194.0723  97.2981  1.00271047 50172"
      },
      "geometry": {
        "type": "Point",
        "coordinates": [
          173.2107192940394,
          2.841696032682105
        ]
      }
    },
    {
      "type": "Feature",
      "properties": {
        "norad_id": 29236,
        "name": "GALAXY 16 (G-16)",
        "group": "intelsat",
        "lat": -0.00021377955220960716,
        "lon": 162.88863919405418,
        "alt_km": 35788.56085225831,
        "timestamp": "2025-12-20T11:30:28.038517+00:00",
        "meta_object_name": "GALAXY 16 (G-16)",
        "meta_object_id": "2006-023A",
        "meta_epoch": "2025-12-20T02:29:17.838816",
        "meta_mean_motion": 1.00271324,
        "meta_eccentricity": 0.000246,
        "meta_inclination": 0.0099,
        "meta_ra_of_asc_node": 262.1374,
        "meta_arg_of_pericenter": 3.6929,
        "meta_mean_anomaly": 121.4333,
        "meta_ephemeris_type": 0,
        "meta_classification_type": "U",
        "meta_norad_cat_id": 29236,
        "meta_element_set_no": 999,
        "meta_rev_at_epoch": 7117,
        "meta_bstar": 0,
        "meta_mean_motion_dot": -1.03e-06,
        "meta_mean_motion_ddot": 0,
        "tle_line1": "1 29236U 06023A   25354.10367869 -.00000103  00000+0  00000+0 0  9995",
        "tle_line2": "2 29236   0.0099 262.1374 0002460   3.6929 121.4333  1.00271324 71171"
      },
      "geometry": {
        "type": "Point",
        "coordinates": [
          162.88863919405418,
          -0.00021377955220960716
        ]
      }
    },
    {
      "type": "Feature",
      "properties": {
        "norad_id": 29494,
        "name": "DIRECTV 9S",
        "group": "intelsat",
        "lat": 1.9219800999602892,
        "lon": 160.67571894293675,
        "alt_km": 35790.768761342195,
        "timestamp": "2025-12-20T11:30:28.038529+00:00",
        "meta_object_name": "DIRECTV 9S",
        "meta_object_id": "2006-043A",
        "meta_epoch": "2025-12-20T02:28:40.399104",
        "meta_mean_motion": 1.00271685,
        "meta_eccentricity": 0.0002817,
        "meta_inclination": 1.9581,
        "meta_ra_of_asc_node": 83.1359,
        "meta_arg_of_pericenter": 191.8611,
        "meta_mean_anomaly": 109.9024,
        "meta_ephemeris_type": 0,
        "meta_classification_type": "U",
        "meta_norad_cat_id": 29494,
        "meta_element_set_no": 999,
        "meta_rev_at_epoch": 4958,
        "meta_bstar": 0,
        "meta_mean_motion_dot": -9.1e-07,
        "meta_mean_motion_ddot": 0,
        "tle_line1": "1 29494U 06043A   25354.10324536 -.00000091  00000+0  00000+0 0  9993",
        "tle_line2": "2 29494   1.9581  83.1359 0002817 191.8611 109.9024  1.00271685 49589"
      },
      "geometry": {
        "type": "Point",
        "coordinates": [
          160.67571894293675,
          1.9219800999602892
        ]
      }
    }
  ]
}